{"type": "FeatureCollection", "features": [ {"type": "Feature", "properties": {"norad_id": 36211, "name": "FENGYUN 1C DEB", "group": "fengyun-1c-debris", "lat": -19.600451378985095, "lon": -22.235202570262405, "alt_km": 824.2869081922872, "timestamp": "2025-12-07T09:35:10.078649+00:00", "meta": {"OBJECT_NAME": "FENGYUN 1C DEB", "OBJECT_ID": "1999-025DUL", "EPOCH": "2025-12-05T17:15:46.002816", "MEAN_MOTION": 14.25954721, "ECCENTRICITY": 0.02662967, "INCLINATION": 98.503, "RA_OF_ASC_NODE": 333.0786, "ARG_OF_PERICENTER": 249.5072, "MEAN_ANOMALY": 107.7342, "EPHEMERIS_TYPE": 0, "CLASSIFICATION_TYPE": "U", "NORAD_CAT_ID": 36211, "ELEMENT_SET_NO": 999, "REV_AT_EPOCH": 94269, "BSTAR": 0.0010127648, "MEAN_MOTION_DOT": 3.457e-05, "MEAN_MOTION_DDOT": 0}, "tle": {"line1": "1 36211U 99025DUL 25339.71928244  .00003457  00000+0  10128-2 0  9999", "line2": "2 36211  98.5030 333.0786 0266296 249.5072 107.7342 14.25954721942694"}}, "geometry": {"type": "Point", "coordinates": [-22.235202570262405, -19.600451378985095]}}, {"type": "Feature", "properties": {"norad_id": 36216, "name": "FENGYUN 1C DEB", "group": "fengyun-1c-debris", "lat": 53.53809363993654, "lon": -166.40635789023943, "alt_km": 825.3354856334472, "timestamp": "2025-12-07T09:35:10.078659+00:00", "meta": {"OBJECT_NAME": "FENGYUN 1C DEB", "OBJECT_ID": "1999-025DUR", "EPOCH": "2025-12-03T18:41:03.384096", "MEAN_MOTION": 14.18834784, "ECCENTRICITY": 0.00454101, "INCLINATION": 98.6096, "RA_OF_ASC_NODE": 358.2465, "ARG_OF_PERICENTER": 43.693, "MEAN_ANOMALY": 316.7826, "EPHEMERIS_TYPE": 0, "CLASSIFICATION_TYPE": "U", "NORAD_CAT_ID": 36216, "ELEMENT_SET_NO": 999, "REV_AT_EPOCH": 64245, "BSTAR": 0.00043256372, "MEAN_MOTION_DOT": 8.67e-06, "MEAN_MOTION_DDOT": 0}, "tle": {"line1": "1 36216U 99025DUR 25337.77851139  .00000867  00000+0  43256-3 0  9997", "line2": "2 36216  98.6096 358.2465 0045410  43.6930 316.7826 14.18834784642452"}}, "geometry": {"type": "Point", "coordinates": [-166.40635789023943, 53.53809363993654]}}, {"type": "Feature", "properties": {"norad_id": 36218, "name": "FENGYUN 1C DEB", "group": "fengyun-1c-debris", "lat": 69.88449669306226, "lon": 27.67626828810847, "alt_km": 698.3912497319297, "timestamp": "2025-12-07T09:35:10.078669+00:00", "meta": {"OBJECT_NAME": "FENGYUN 1C DEB", "OBJECT_ID": "1999-025DUT", "EPOCH": "2025-12-06T11:52:17.104224", "MEAN_MOTION": 14.70854287, "ECCENTRICITY": 0.00732367, "INCLINATION": 99.0761, "RA_OF_ASC_NODE": 180.7916, "ARG_OF_PERICENTER": 315.0069, "MEAN_ANOMALY": 44.5215, "EPHEMERIS_TYPE": 0, "CLASSIFICATION_TYPE": "U", "NORAD_CAT_ID": 36218, "ELEMENT_SET_NO": 999, "REV_AT_EPOCH": 59051, "BSTAR": 0.0020337657, "MEAN_MOTION_DOT": 0.00012922, "MEAN_MOTION_DDOT": 0}, "tle": {"line1": "1 36218U 99025DUT 25340.49464241  .00012922  00000+0  20338-2 0  9996", "line2": "2 36218  99.0761 180.7916 0073236 315.0069  44.5215 14.70854287590518"}}, "geometry": {"type": "Point", "coordinates": [27.67626828810847, 69.88449669306226]}}, {"type": "Feature", "properties": {"norad_id": 36224, "name": "FENGYUN 1C DEB", "group": "fengyun-1c-debris", "lat": 59.632185118853236, "lon": -135.86494097367046, "alt_km": 874.3272104987373, "timestamp": "2025-12-07T09:35:10.078679+00:00", "meta": {"OBJECT_NAME": "FENGYUN 1C DEB", "OBJECT_ID": "1999-025DUZ", "EPOCH": "2025-12-06T21:07:57.437760", "MEAN_MOTION": 14.12758364, "ECCENTRICITY": 0.01148834, "INCLINATION": 98.7809, "RA_OF_ASC_NODE": 28.3313, "ARG_OF_PERICENTER": 8.675, "MEAN_ANOMALY": 351.6373, "EPHEMERIS_TYPE": 0, "CLASSIFICATION_TYPE": "U", "NORAD_CAT_ID": 36224, "ELEMENT_SET_NO": 999, "REV_AT_EPOCH": 64349, "BSTAR": 0.0001903349, "MEAN_MOTION_DOT": 3.33e-06, "MEAN_MOTION_DDOT": 0}, "tle": {"line1": "1 36224U 99025DUZ 25340.88052590  .00000333  00000+0  19033-3 0  9990", "line2": "2 36224  98.7809  28.3313 0114883   8.6750 351.6373 14.12758364643496"}}, "geometry": {"type": "Point", "coordinates": [-135.86494097367046, 59.632185118853236]}}, {"type": "Feature", "properties": {"norad_id": 36225, "name": "FENGYUN 1C DEB", "group": "fengyun-1c-debris", "lat": -70.8703756682705, "lon": -104.5485666921473, "alt_km": 539.3371086101024, "timestamp": "2025-12-07T09:35:10.078694+00:00", "meta": {"OBJECT_NAME": "FENGYUN 1C DEB", "OBJECT_ID": "1999-025DVA", "EPOCH": "2025-12-05T07:00:38.521728", "MEAN_MOTION": 15.05269466, "ECCENTRICITY": 0.00445041, "INCLINATION": 98.8187, "RA_OF_ASC_NODE": 99.6345, "ARG_OF_PERICENTER": 314.8469, "MEAN_ANOMALY": 44.9141, "EPHEMERIS_TYPE": 0, "CLASSIFICATION_TYPE": "U", "NORAD_CAT_ID": 36225, "ELEMENT_SET_NO": 999, "REV_AT_EPOCH": 66660, "BSTAR": 0.0045250921, "MEAN_MOTION_DOT": 0.00066606, "MEAN_MOTION_DDOT": 0}, "tle": {"line1": "1 36225U 99025DVA 25339.29211252  .00066606  00000+0  45251-2 0  9991", "line2": "2 36225  98.8187  99.6345 0044504 314.8469  44.9141 15.05269466666600"}}, "geometry": {"type": "Point", "coordinates": [-104.5485666921473, -70.8703756682705]}}, {"type": "Feature", "properties": {"norad_id": 36226, "name": "FENGYUN 1C DEB", "group": "fengyun-1c-debris", "lat": -41.37229978804391, "lon": 31.801252202840107, "alt_km": 849.8359270906058, "timestamp": "2025-12-07T09:35:10.078705+00:00", "meta": {"OBJECT_NAME": "FENGYUN 1C DEB", "OBJECT_ID": "1999-025DVB", "EPOCH": "2025-12-05T08:24:08.459424", "MEAN_MOTION": 14.10238341, "ECCENTRICITY": 0.00958599, "INCLINATION": 98.6088, "RA_OF_ASC_NODE": 22.1717, "ARG_OF_PERICENTER": 41.8631, "MEAN_ANOMALY": 318.982, "EPHEMERIS_TYPE": 0, "CLASSIFICATION_TYPE": "U", "NORAD_CAT_ID": 36226, "ELEMENT_SET_NO": 999, "REV_AT_EPOCH": 63658, "BSTAR": 0.0024391454, "MEAN_MOTION_DOT": 4.471e-05, "MEAN_MOTION_DDOT": 0}, "tle": {"line1": "1 36226U 99025DVB 25339.35009791  .00004471  00000+0  24391-2 0  9996", "line2": "2 36226  98.6088  22.1717 0095859  41.8631 318.9820 14.10238341636585"}}, "geometry": {"type": "Point", "coordinates": [31.801252202840107, -41.37229978804391]}}, {"type": "Feature", "properties": {"norad_id": 36229, "name": "FENGYUN 1C DEB", "group": "fengyun-1c-debris", "lat": 34.35509006145326, "lon": 27.651168271823156, "alt_km": 793.2200889513279, "timestamp": "2025-12-07T09:35:10.078715+00:00", "meta": {"OBJECT_NAME": "FENGYUN 1C DEB", "OBJECT_ID": "1999-025DVE", "EPOCH": "2025-12-06T09:00:50.979456", "MEAN_MOTION": 14.0714207, "ECCENTRICITY": 0.01024665, "INCLINATION": 100.9241, "RA_OF_ASC_NODE": 198.8304, "ARG_OF_PERICENTER": 139.4273, "MEAN_ANOMALY": 221.4583, "EPHEMERIS_TYPE": 0, "CLASSIFICATION_TYPE": "U", "NORAD_CAT_ID": 36229, "ELEMENT_SET_NO": 999, "REV_AT_EPOCH": 63166, "BSTAR": 0.0025541808, "MEAN_MOTION_DOT": 4.428e-05, "MEAN_MOTION_DDOT": 0}, "tle": {"line1": "1 36229U 99025DVE 25340.37559004  .00004428  00000+0  25542-2 0  9991", "line2": "2 36229 100.9241 198.8304 0102466 139.4273 221.4583 14.07142070631665"}}, "geometry": {"type": "Point", "coordinates": [27.651168271823156, 34.35509006145326]}}, {"type": "Feature", "properties": {"norad_id": 36230, "name": "FENGYUN 1C DEB", "group": "fengyun-1c-debris", "lat": -78.51801520658955, "lon": -179.23640650519584, "alt_km": 1034.123457988755, "timestamp": "2025-12-07T09:35:10.078725+00:00", "meta": {"OBJECT_NAME": "FENGYUN 1C DEB", "OBJECT_ID": "1999-025DVF", "EPOCH": "2025-12-01T10:53:13.084224", "MEAN_MOTION": 13.75193497, "ECCENTRICITY": 0.02182616, "INCLINATION": 99.5257, "RA_OF_ASC_NODE": 50.5767, "ARG_OF_PERICENTER": 171.2335, "MEAN_ANOMALY": 189.2724, "EPHEMERIS_TYPE": 0, "CLASSIFICATION_TYPE": "U", "NORAD_CAT_ID": 36230, "ELEMENT_SET_NO": 999, "REV_AT_EPOCH": 61731, "BSTAR": 0.0022005072, "MEAN_MOTION_DOT": 2.463e-05, "MEAN_MOTION_DDOT": 0}, "tle": {"line1": "1 36230U 99025DVF 25335.45362366  .00002463  00000+0  22005-2 0  9997", "line2": "2 36230  99.5257  50.5767 0218261 171.2335 189.2724 13.75193497617315"}}, "geometry": {"type": "Point", "coordinates": [-179.23640650519584, -78.51801520658955]}}, {"type": "Feature", "properties": {"norad_id": 36231, "name": "FENGYUN 1C DEB", "group": "fengyun-1c-debris", "lat": 4.892765940835384, "lon": 137.24727890429872, "alt_km": 898.56896012784, "timestamp": "2025-12-07T09:35:10.078736+00:00", "meta": {"OBJECT_NAME": "FENGYUN 1C DEB", "OBJECT_ID": "1999-025DVG", "EPOCH": "2025-12-05T15:56:36.863520", "MEAN_MOTION": 14.12000961, "ECCENTRICITY": 0.0060915, "INCLINATION": 98.6876, "RA_OF_ASC_NODE": 314.8164, "ARG_OF_PERICENTER": 353.731, "MEAN_ANOMALY": 6.3094, "EPHEMERIS_TYPE": 0, "CLASSIFICATION_TYPE": "U", "NORAD_CAT_ID": 36231, "ELEMENT_SET_NO": 999, "REV_AT_EPOCH": 85443, "BSTAR": 0.00026309485, "MEAN_MOTION_DOT": 4.47e-06, "MEAN_MOTION_DDOT": 0}, "tle": {"line1": "1 36231U 99025DVG 25339.66431555  .00000447  00000+0  26309-3 0  9994", "line2": "2 36231  98.6876 314.8164 0060915 353.7310   6.3094 14.12000961854431"}}, "geometry": {"type": "Point", "coordinates": [137.24727890429872, 4.892765940835384]}}, {"type": "Feature", "properties": {"norad_id": 36232, "name": "FENGYUN 1C DEB", "group": "fengyun-1c-debris", "lat": 53.37050429270284, "lon": -46.295448721814786, "alt_km": 761.0831196703748, "timestamp": "2025-12-07T09:35:10.078746+00:00", "meta": {"OBJECT_NAME": "FENGYUN 1C DEB", "OBJECT_ID": "1999-025DVH", "EPOCH": "2025-12-06T16:20:06.214272", "MEAN_MOTION": 14.12489244, "ECCENTRICITY": 0.01193626, "INCLINATION": 98.7041, "RA_OF_ASC_NODE": 324.8972, "ARG_OF_PERICENTER": 45.2635, "MEAN_ANOMALY": 315.8179, "EPHEMERIS_TYPE": 0, "CLASSIFICATION_TYPE": "U", "NORAD_CAT_ID": 36232, "ELEMENT_SET_NO": 999, "REV_AT_EPOCH": 61650, "BSTAR": 0.0005849679, "MEAN_MOTION_DOT": 1.114e-05, "MEAN_MOTION_DDOT": 0}, "tle": {"line1": "1 36232U 99025DVH 25340.68062748  .00001114  00000+0  58497-3 0  9998", "line2": "2 36232  98.7041 324.8972 0119362  45.2635 315.8179 14.12489244616500"}}, "geometry": {"type": "Point", "coordinates": [-46.295448721814786, 53.37050429270284]}}]}